DELTA 2 R/B(1)          
1 20453U 90008B   26046.15089972  .00061323  00000+0  79537-3 0  9998
2 20453  35.6054 322.4081 0090984  48.0753 312.7696 15.52817677922620
COSMOS 2058             
1 20465U 90010A   26046.46649105  .00005300  00000+0  31428-3 0  9998
2 20465  82.4654  69.3214 0011363  58.4037 301.8300 15.11114373938882
SL-14 R/B               
1 20466U 90010B   26046.15960486  .00000399  00000+0  45424-4 0  9998
2 20466  82.5018 288.5542 0020323  18.4642 341.7306 14.83548963925149
SL-14 R/B               
1 20511U 90018B   26046.49325722  .00000555  00000+0  66691-4 0  9995
2 20511  82.5180 243.8404 0016744 160.3094 199.8771 14.82120934919291
HST                     
1 20580U 90037B   26046.42870873  .00008875  00000+0  29710-3 0  9990
2 20580  28.4670 191.8156 0001369 214.6582 145.3924 15.29118613769908
SL-16 R/B               
1 20625U 90046B   26046.21722512  .00000346  00000+0  20318-3 0  9993
2 20625  71.0013 345.1080 0015119 330.9489  29.0790 14.15010537845217
COSMOS 2084             
1 20663U 90055A   26046.40553535  .00003427  00000+0  25001-3 0  9990
2 20663  62.7897  51.5722 0020542 185.1591 174.9301 15.05503509932960
SL-6 R/B(2)             
1 20666U 90055D   26046.22497425  .00002974  00000+0  23063-3 0  9990
2 20666  62.7847 330.2386 0021359 340.9321  19.0976 15.03481595934811
SL-8 R/B                
1 20775U 90078B   26046.05851569  .00011912  00000+0  34947-3 0  9995
2 20775  82.9016 271.6525 0366457  89.8411 274.4789 14.88295254805933
SL-8 R/B                
1 21088U 91006B   26046.47050772  .00000016  00000+0  77550-6 0  9991
2 21088  82.9443 186.5638 0023757  97.5343 325.3928 13.77492286761019
OKEAN-3                 
1 21397U 91039A   26046.33517817  .00005319  00000+0  37575-3 0  9994
2 21397  82.5186 358.4923 0016083  50.5064 309.7582 15.04627701861671
COSMOS 2151             
1 21422U 91042A   26046.47029374  .00001881  00000+0  14884-3 0  9996
2 21422  82.4953 105.1118 0013731 130.5519 229.6903 15.00020601859862
