CCSDS_OMM_VERS = 2.0
CREATION_DATE  = 
ORIGINATOR     = 

OBJECT_NAME    = DELTA 2 R/B(1)
OBJECT_ID      = 1990-008B
CENTER_NAME    = EARTH
REF_FRAME      = TEME
TIME_SYSTEM    = UTC
MEAN_ELEMENT_THEORY = SGP/SGP4

EPOCH          = 2026-02-15T03:37:17.735808
MEAN_MOTION    = 15.52817677
ECCENTRICITY   = .00909848
INCLINATION    = 35.6054
RA_OF_ASC_NODE = 322.4081
ARG_OF_PERICENTER = 48.0753
MEAN_ANOMALY   = 312.7696

EPHEMERIS_TYPE = 0
CLASSIFICATION_TYPE = U
NORAD_CAT_ID   = 20453
ELEMENT_SET_NO = 999
REV_AT_EPOCH   = 92262
BSTAR          = .79536943E-3
MEAN_MOTION_DOT = .61323E-3
MEAN_MOTION_DDOT = 0

CCSDS_OMM_VERS = 2.0
CREATION_DATE  = 
ORIGINATOR     = 

OBJECT_NAME    = COSMOS 2058
OBJECT_ID      = 1990-010A
CENTER_NAME    = EARTH
REF_FRAME      = TEME
TIME_SYSTEM    = UTC
MEAN_ELEMENT_THEORY = SGP/SGP4

EPOCH          = 2026-02-15T11:11:44.826720
MEAN_MOTION    = 15.11114373
ECCENTRICITY   = .0011363
INCLINATION    = 82.4654
RA_OF_ASC_NODE = 69.3214
ARG_OF_PERICENTER = 58.4037
MEAN_ANOMALY   = 301.8300

EPHEMERIS_TYPE = 0
CLASSIFICATION_TYPE = U
NORAD_CAT_ID   = 20465
ELEMENT_SET_NO = 999
REV_AT_EPOCH   = 93888
BSTAR          = .31428E-3
MEAN_MOTION_DOT = .53E-4
MEAN_MOTION_DDOT = 0

CCSDS_OMM_VERS = 2.0
CREATION_DATE  = 
ORIGINATOR     = 

OBJECT_NAME    = SL-14 R/B
OBJECT_ID      = 1990-010B
CENTER_NAME    = EARTH
REF_FRAME      = TEME
TIME_SYSTEM    = UTC
MEAN_ELEMENT_THEORY = SGP/SGP4

EPOCH          = 2026-02-15T03:49:49.859904
MEAN_MOTION    = 14.83548963
ECCENTRICITY   = .00203234
INCLINATION    = 82.5018
RA_OF_ASC_NODE = 288.5542
ARG_OF_PERICENTER = 18.4642
MEAN_ANOMALY   = 341.7306

EPHEMERIS_TYPE = 0
CLASSIFICATION_TYPE = U
NORAD_CAT_ID   = 20466
ELEMENT_SET_NO = 999
REV_AT_EPOCH   = 92514
BSTAR          = .45423624E-4
MEAN_MOTION_DOT = .399E-5
MEAN_MOTION_DDOT = 0

CCSDS_OMM_VERS = 2.0
CREATION_DATE  = 
ORIGINATOR     = 

OBJECT_NAME    = SL-14 R/B
OBJECT_ID      = 1990-018B
CENTER_NAME    = EARTH
REF_FRAME      = TEME
TIME_SYSTEM    = UTC
MEAN_ELEMENT_THEORY = SGP/SGP4

EPOCH          = 2026-02-15T11:50:17.423808
MEAN_MOTION    = 14.82120934
ECCENTRICITY   = .0016744
INCLINATION    = 82.5180
RA_OF_ASC_NODE = 243.8404
ARG_OF_PERICENTER = 160.3094
MEAN_ANOMALY   = 199.8771

EPHEMERIS_TYPE = 0
CLASSIFICATION_TYPE = U
NORAD_CAT_ID   = 20511
ELEMENT_SET_NO = 999
REV_AT_EPOCH   = 91929
BSTAR          = .66691E-4
MEAN_MOTION_DOT = .555E-5
MEAN_MOTION_DDOT = 0

CCSDS_OMM_VERS = 2.0
CREATION_DATE  = 
ORIGINATOR     = 

OBJECT_NAME    = HST
OBJECT_ID      = 1990-037B
CENTER_NAME    = EARTH
REF_FRAME      = TEME
TIME_SYSTEM    = UTC
MEAN_ELEMENT_THEORY = SGP/SGP4

EPOCH          = 2026-02-15T10:17:20.434272
MEAN_MOTION    = 15.29118613
ECCENTRICITY   = .0001369
INCLINATION    = 28.4670
RA_OF_ASC_NODE = 191.8156
ARG_OF_PERICENTER = 214.6582
MEAN_ANOMALY   = 145.3924

EPHEMERIS_TYPE = 0
CLASSIFICATION_TYPE = U
NORAD_CAT_ID   = 20580
ELEMENT_SET_NO = 999
REV_AT_EPOCH   = 76990
BSTAR          = .2971E-3
MEAN_MOTION_DOT = .8875E-4
MEAN_MOTION_DDOT = 0

CCSDS_OMM_VERS = 2.0
CREATION_DATE  = 
ORIGINATOR     = 

OBJECT_NAME    = SL-16 R/B
OBJECT_ID      = 1990-046B
CENTER_NAME    = EARTH
REF_FRAME      = TEME
TIME_SYSTEM    = UTC
MEAN_ELEMENT_THEORY = SGP/SGP4

EPOCH          = 2026-02-15T05:12:48.250368
MEAN_MOTION    = 14.15010537
ECCENTRICITY   = .0015119
INCLINATION    = 71.0013
RA_OF_ASC_NODE = 345.1080
ARG_OF_PERICENTER = 330.9489
MEAN_ANOMALY   = 29.0790

EPHEMERIS_TYPE = 0
CLASSIFICATION_TYPE = U
NORAD_CAT_ID   = 20625
ELEMENT_SET_NO = 999
REV_AT_EPOCH   = 84521
BSTAR          = .20318E-3
MEAN_MOTION_DOT = .346E-5
MEAN_MOTION_DDOT = 0

CCSDS_OMM_VERS = 2.0
CREATION_DATE  = 
ORIGINATOR     = 

OBJECT_NAME    = COSMOS 2084
OBJECT_ID      = 1990-055A
CENTER_NAME    = EARTH
REF_FRAME      = TEME
TIME_SYSTEM    = UTC
MEAN_ELEMENT_THEORY = SGP/SGP4

EPOCH          = 2026-02-15T09:43:58.254240
MEAN_MOTION    = 15.05503509
ECCENTRICITY   = .0020542
INCLINATION    = 62.7897
RA_OF_ASC_NODE = 51.5722
ARG_OF_PERICENTER = 185.1591
MEAN_ANOMALY   = 174.9301

EPHEMERIS_TYPE = 0
CLASSIFICATION_TYPE = U
NORAD_CAT_ID   = 20663
ELEMENT_SET_NO = 999
REV_AT_EPOCH   = 93296
BSTAR          = .25001E-3
MEAN_MOTION_DOT = .3427E-4
MEAN_MOTION_DDOT = 0

CCSDS_OMM_VERS = 2.0
CREATION_DATE  = 
ORIGINATOR     = 

OBJECT_NAME    = SL-6 R/B(2)
OBJECT_ID      = 1990-055D
CENTER_NAME    = EARTH
REF_FRAME      = TEME
TIME_SYSTEM    = UTC
MEAN_ELEMENT_THEORY = SGP/SGP4

EPOCH          = 2026-02-15T05:23:57.775200
MEAN_MOTION    = 15.03481595
ECCENTRICITY   = .0021359
INCLINATION    = 62.7847
RA_OF_ASC_NODE = 330.2386
ARG_OF_PERICENTER = 340.9321
MEAN_ANOMALY   = 19.0976

EPHEMERIS_TYPE = 0
CLASSIFICATION_TYPE = U
NORAD_CAT_ID   = 20666
ELEMENT_SET_NO = 999
REV_AT_EPOCH   = 93481
BSTAR          = .23063E-3
MEAN_MOTION_DOT = .2974E-4
MEAN_MOTION_DDOT = 0

CCSDS_OMM_VERS = 2.0
CREATION_DATE  = 
ORIGINATOR     = 

OBJECT_NAME    = SL-8 R/B
OBJECT_ID      = 1990-078B
CENTER_NAME    = EARTH
REF_FRAME      = TEME
TIME_SYSTEM    = UTC
MEAN_ELEMENT_THEORY = SGP/SGP4

EPOCH          = 2026-02-15T01:24:15.755616
MEAN_MOTION    = 14.88295254
ECCENTRICITY   = .03664578
INCLINATION    = 82.9016
RA_OF_ASC_NODE = 271.6525
ARG_OF_PERICENTER = 89.8411
MEAN_ANOMALY   = 274.4789

EPHEMERIS_TYPE = 0
CLASSIFICATION_TYPE = U
NORAD_CAT_ID   = 20775
ELEMENT_SET_NO = 999
REV_AT_EPOCH   = 80593
BSTAR          = .34946716E-3
MEAN_MOTION_DOT = .11912E-3
MEAN_MOTION_DDOT = 0

CCSDS_OMM_VERS = 2.0
CREATION_DATE  = 
ORIGINATOR     = 

OBJECT_NAME    = SL-8 R/B
OBJECT_ID      = 1991-006B
CENTER_NAME    = EARTH
REF_FRAME      = TEME
TIME_SYSTEM    = UTC
MEAN_ELEMENT_THEORY = SGP/SGP4

EPOCH          = 2026-02-15T11:17:31.867008
MEAN_MOTION    = 13.77492286
ECCENTRICITY   = .0023757
INCLINATION    = 82.9443
RA_OF_ASC_NODE = 186.5638
ARG_OF_PERICENTER = 97.5343
MEAN_ANOMALY   = 325.3928

EPHEMERIS_TYPE = 0
CLASSIFICATION_TYPE = U
NORAD_CAT_ID   = 21088
ELEMENT_SET_NO = 999
REV_AT_EPOCH   = 76101
BSTAR          = .7755E-6
MEAN_MOTION_DOT = .16E-6
MEAN_MOTION_DDOT = 0

CCSDS_OMM_VERS = 2.0
CREATION_DATE  = 
ORIGINATOR     = 

OBJECT_NAME    = OKEAN-3
OBJECT_ID      = 1991-039A
CENTER_NAME    = EARTH
REF_FRAME      = TEME
TIME_SYSTEM    = UTC
MEAN_ELEMENT_THEORY = SGP/SGP4

EPOCH          = 2026-02-15T08:02:39.393888
MEAN_MOTION    = 15.04627701
ECCENTRICITY   = .0016083
INCLINATION    = 82.5186
RA_OF_ASC_NODE = 358.4923
ARG_OF_PERICENTER = 50.5064
MEAN_ANOMALY   = 309.7582

EPHEMERIS_TYPE = 0
CLASSIFICATION_TYPE = U
NORAD_CAT_ID   = 21397
ELEMENT_SET_NO = 999
REV_AT_EPOCH   = 86167
BSTAR          = .37575E-3
MEAN_MOTION_DOT = .5319E-4
MEAN_MOTION_DDOT = 0

CCSDS_OMM_VERS = 2.0
CREATION_DATE  = 
ORIGINATOR     = 

OBJECT_NAME    = COSMOS 2151
OBJECT_ID      = 1991-042A
CENTER_NAME    = EARTH
REF_FRAME      = TEME
TIME_SYSTEM    = UTC
MEAN_ELEMENT_THEORY = SGP/SGP4

EPOCH          = 2026-02-15T11:17:13.379136
MEAN_MOTION    = 15.00020601
ECCENTRICITY   = .0013731
INCLINATION    = 82.4953
RA_OF_ASC_NODE = 105.1118
ARG_OF_PERICENTER = 130.5519
MEAN_ANOMALY   = 229.6903

EPHEMERIS_TYPE = 0
CLASSIFICATION_TYPE = U
NORAD_CAT_ID   = 21422
ELEMENT_SET_NO = 999
REV_AT_EPOCH   = 85986
BSTAR          = .14884E-3
MEAN_MOTION_DOT = .1881E-4
MEAN_MOTION_DDOT = 0

